{"type": "FeatureCollection", "features": [ {"type": "Feature", "properties": {"norad_id": 35240, "name": "FENGYUN 1C DEB", "group": "fengyun-1c-debris", "lat": 32.273056720663995, "lon": -42.55444600236511, "alt_km": 806.04322174339, "timestamp": "2025-12-26T03:50:12.381311+00:00", "meta": {"OBJECT_NAME": "FENGYUN 1C DEB", "OBJECT_ID": "1999-025DQY", "EPOCH": "2025-12-25T04:03:52.508736", "MEAN_MOTION": 14.2339472, "ECCENTRICITY": 0.0046855, "INCLINATION": 99.3517, "RA_OF_ASC_NODE": 322.3671, "ARG_OF_PERICENTER": 115.9271, "MEAN_ANOMALY": 244.6745, "EPHEMERIS_TYPE": 0, "CLASSIFICATION_TYPE": "U", "NORAD_CAT_ID": 35240, "ELEMENT_SET_NO": 999, "REV_AT_EPOCH": 93341, "BSTAR": 0.0018957, "MEAN_MOTION_DOT": 4.304e-05, "MEAN_MOTION_DDOT": 0}, "tle": {"line1": "1 35240U 99025DQY 25359.16935774  .00004304  00000+0  18957-2 0  9997", "line2": "2 35240  99.3517 322.3671 0046855 115.9271 244.6745 14.23394720933415"}}, "geometry": {"type": "Point", "coordinates": [-42.55444600236511, 32.273056720663995]}}, {"type": "Feature", "properties": {"norad_id": 35241, "name": "FENGYUN 1C DEB", "group": "fengyun-1c-debris", "lat": 23.621010997868808, "lon": -75.29995410652198, "alt_km": 968.242117343345, "timestamp": "2025-12-26T03:50:12.381339+00:00", "meta": {"OBJECT_NAME": "FENGYUN 1C DEB", "OBJECT_ID": "1999-025DQZ", "EPOCH": "2025-12-11T05:44:22.817472", "MEAN_MOTION": 14.01929609, "ECCENTRICITY": 0.0135502, "INCLINATION": 98.631, "RA_OF_ASC_NODE": 274.3792, "ARG_OF_PERICENTER": 212.8639, "MEAN_ANOMALY": 146.4048, "EPHEMERIS_TYPE": 0, "CLASSIFICATION_TYPE": "U", "NORAD_CAT_ID": 35241, "ELEMENT_SET_NO": 999, "REV_AT_EPOCH": 87585, "BSTAR": 0.002553102, "MEAN_MOTION_DOT": 4.174e-05, "MEAN_MOTION_DDOT": 0}, "tle": {"line1": "1 35241U 99025DQZ 25345.23915298  .00004174  00000+0  25531-2 0  9991", "line2": "2 35241  98.6310 274.3792 0135502 212.8639 146.4048 14.01929609875856"}}, "geometry": {"type": "Point", "coordinates": [-75.29995410652198, 23.621010997868808]}}, {"type": "Feature", "properties": {"norad_id": 35242, "name": "FENGYUN 1C DEB", "group": "fengyun-1c-debris", "lat": -63.7060496816346, "lon": -148.06329745078793, "alt_km": 1062.8276286484388, "timestamp": "2025-12-26T03:50:12.381352+00:00", "meta": {"OBJECT_NAME": "FENGYUN 1C DEB", "OBJECT_ID": "1999-025DRA", "EPOCH": "2025-12-25T10:45:54.992160", "MEAN_MOTION": 13.52374015, "ECCENTRICITY": 0.0301773, "INCLINATION": 99.9687, "RA_OF_ASC_NODE": 52.0722, "ARG_OF_PERICENTER": 157.5185, "MEAN_ANOMALY": 223.2183, "EPHEMERIS_TYPE": 0, "CLASSIFICATION_TYPE": "U", "NORAD_CAT_ID": 35242, "ELEMENT_SET_NO": 999, "REV_AT_EPOCH": 58299, "BSTAR": 0.0013323, "MEAN_MOTION_DOT": 1.128e-05, "MEAN_MOTION_DDOT": 0}, "tle": {"line1": "1 35242U 99025DRA 25359.44855315  .00001128  00000+0  13323-2 0  9995", "line2": "2 35242  99.9687  52.0722 0301773 157.5185 223.2183 13.52374015582992"}}, "geometry": {"type": "Point", "coordinates": [-148.06329745078793, -63.7060496816346]}}, {"type": "Feature", "properties": {"norad_id": 35243, "name": "FENGYUN 1C DEB", "group": "fengyun-1c-debris", "lat": -40.060018578586934, "lon": 88.16465110343404, "alt_km": 623.9325020814986, "timestamp": "2025-12-26T03:50:12.381362+00:00", "meta": {"OBJECT_NAME": "FENGYUN 1C DEB", "OBJECT_ID": "1999-025DRB", "EPOCH": "2025-12-25T11:52:34.036032", "MEAN_MOTION": 14.87465314, "ECCENTRICITY": 0.0065679, "INCLINATION": 98.8775, "RA_OF_ASC_NODE": 79.8692, "ARG_OF_PERICENTER": 216.4814, "MEAN_ANOMALY": 143.1916, "EPHEMERIS_TYPE": 0, "CLASSIFICATION_TYPE": "U", "NORAD_CAT_ID": 35243, "ELEMENT_SET_NO": 999, "REV_AT_EPOCH": 91190, "BSTAR": 0.0024808, "MEAN_MOTION_DOT": 0.00023379, "MEAN_MOTION_DDOT": 0}, "tle": {"line1": "1 35243U 99025DRB 25359.49483838  .00023379  00000+0  24808-2 0  9990", "line2": "2 35243  98.8775  79.8692 0065679 216.4814 143.1916 14.87465314911901"}}, "geometry": {"type": "Point", "coordinates": [88.16465110343404, -40.060018578586934]}}, {"type": "Feature", "properties": {"norad_id": 35244, "name": "FENGYUN 1C DEB", "group": "fengyun-1c-debris", "lat": 13.248306579200898, "lon": 37.97137010120594, "alt_km": 886.4800767078505, "timestamp": "2025-12-26T03:50:12.381372+00:00", "meta": {"OBJECT_NAME": "FENGYUN 1C DEB", "OBJECT_ID": "1999-025DRC", "EPOCH": "2025-12-24T14:12:57.316320", "MEAN_MOTION": 14.06650486, "ECCENTRICITY": 0.00720455, "INCLINATION": 98.8396, "RA_OF_ASC_NODE": 38.5396, "ARG_OF_PERICENTER": 124.5603, "MEAN_ANOMALY": 236.2392, "EPHEMERIS_TYPE": 0, "CLASSIFICATION_TYPE": "U", "NORAD_CAT_ID": 35244, "ELEMENT_SET_NO": 999, "REV_AT_EPOCH": 65988, "BSTAR": 0.00041216131, "MEAN_MOTION_DOT": 6.57e-06, "MEAN_MOTION_DDOT": 0}, "tle": {"line1": "1 35244U 99025DRC 25358.59233005  .00000657  00000+0  41216-3 0  9997", "line2": "2 35244  98.8396  38.5396 0072045 124.5603 236.2392 14.06650486659889"}}, "geometry": {"type": "Point", "coordinates": [37.97137010120594, 13.248306579200898]}}, {"type": "Feature", "properties": {"norad_id": 35245, "name": "FENGYUN 1C DEB", "group": "fengyun-1c-debris", "lat": -43.30517525157935, "lon": -102.79777889305635, "alt_km": 812.4596768131387, "timestamp": "2025-12-26T03:50:12.381386+00:00", "meta": {"OBJECT_NAME": "FENGYUN 1C DEB", "OBJECT_ID": "1999-025DRD", "EPOCH": "2025-12-19T04:23:32.034624", "MEAN_MOTION": 14.13126838, "ECCENTRICITY": 0.00598047, "INCLINATION": 99.0852, "RA_OF_ASC_NODE": 78.797, "ARG_OF_PERICENTER": 252.485, "MEAN_ANOMALY": 137.634, "EPHEMERIS_TYPE": 0, "CLASSIFICATION_TYPE": "U", "NORAD_CAT_ID": 35245, "ELEMENT_SET_NO": 999, "REV_AT_EPOCH": 87868, "BSTAR": 0.0014532577, "MEAN_MOTION_DOT": 2.717e-05, "MEAN_MOTION_DDOT": 0}, "tle": {"line1": "1 35245U 99025DRD 25353.18300966  .00002717  00000+0  14533-2 0  9999", "line2": "2 35245  99.0852  78.7970 0059804 252.4850 137.6340 14.13126838878682"}}, "geometry": {"type": "Point", "coordinates": [-102.79777889305635, -43.30517525157935]}}, {"type": "Feature", "properties": {"norad_id": 36147, "name": "FENGYUN 1C DEB", "group": "fengyun-1c-debris", "lat": -65.41201689533645, "lon": 85.587487765045, "alt_km": 939.0488885432087, "timestamp": "2025-12-26T03:50:12.381399+00:00", "meta": {"OBJECT_NAME": "FENGYUN 1C DEB", "OBJECT_ID": "1999-025DRU", "EPOCH": "2025-12-20T21:33:23.692032", "MEAN_MOTION": 13.46553882, "ECCENTRICITY": 0.0442924, "INCLINATION": 98.5255, "RA_OF_ASC_NODE": 61.9559, "ARG_OF_PERICENTER": 242.0095, "MEAN_ANOMALY": 113.5561, "EPHEMERIS_TYPE": 0, "CLASSIFICATION_TYPE": "U", "NORAD_CAT_ID": 36147, "ELEMENT_SET_NO": 999, "REV_AT_EPOCH": 60107, "BSTAR": 0.0014721, "MEAN_MOTION_DOT": 1.576e-05, "MEAN_MOTION_DDOT": 0}, "tle": {"line1": "1 36147U 99025DRU 25354.89819088  .00001576  00000+0  14721-2 0  9991", "line2": "2 36147  98.5255  61.9559 0442924 242.0095 113.5561 13.46553882601070"}}, "geometry": {"type": "Point", "coordinates": [85.587487765045, -65.41201689533645]}}, {"type": "Feature", "properties": {"norad_id": 36148, "name": "FENGYUN 1C DEB", "group": "fengyun-1c-debris", "lat": -63.87139007391374, "lon": -132.80111435462902, "alt_km": 753.8188157227296, "timestamp": "2025-12-26T03:50:12.381409+00:00", "meta": {"OBJECT_NAME": "FENGYUN 1C DEB", "OBJECT_ID": "1999-025DRV", "EPOCH": "2025-12-19T19:33:59.340096", "MEAN_MOTION": 13.85003317, "ECCENTRICITY": 0.02860047, "INCLINATION": 98.4226, "RA_OF_ASC_NODE": 203.9107, "ARG_OF_PERICENTER": 330.6122, "MEAN_ANOMALY": 27.9209, "EPHEMERIS_TYPE": 0, "CLASSIFICATION_TYPE": "U", "NORAD_CAT_ID": 36148, "ELEMENT_SET_NO": 999, "REV_AT_EPOCH": 90342, "BSTAR": 0.0023912593, "MEAN_MOTION_DOT": 3.68e-05, "MEAN_MOTION_DDOT": 0}, "tle": {"line1": "1 36148U 99025DRV 25353.81527014  .00003680  00000+0  23913-2 0  9999", "line2": "2 36148  98.4226 203.9107 0286004 330.6122  27.9209 13.85003317903422"}}, "geometry": {"type": "Point", "coordinates": [-132.80111435462902, -63.87139007391374]}}, {"type": "Feature", "properties": {"norad_id": 36152, "name": "FENGYUN 1C DEB", "group": "fengyun-1c-debris", "lat": -44.43668045029551, "lon": -148.9340927449667, "alt_km": 815.7898901951148, "timestamp": "2025-12-26T03:50:12.381419+00:00", "meta": {"OBJECT_NAME": "FENGYUN 1C DEB", "OBJECT_ID": "1999-025DRZ", "EPOCH": "2025-12-18T08:24:14.818464", "MEAN_MOTION": 14.17273973, "ECCENTRICITY": 0.00557903, "INCLINATION": 98.7554, "RA_OF_ASC_NODE": 32.0659, "ARG_OF_PERICENTER": 196.1632, "MEAN_ANOMALY": 163.7765, "EPHEMERIS_TYPE": 0, "CLASSIFICATION_TYPE": "U", "NORAD_CAT_ID": 36152, "ELEMENT_SET_NO": 999, "REV_AT_EPOCH": 64236, "BSTAR": 0.00095568478, "MEAN_MOTION_DOT": 1.917e-05, "MEAN_MOTION_DDOT": 0}, "tle": {"line1": "1 36152U 99025DRZ 25352.35017151  .00001917  00000+0  95568-3 0  9995", "line2": "2 36152  98.7554  32.0659 0055790 196.1632 163.7765 14.17273973642366"}}, "geometry": {"type": "Point", "coordinates": [-148.9340927449667, -44.43668045029551]}}, {"type": "Feature", "properties": {"norad_id": 36160, "name": "FENGYUN 1C DEB", "group": "fengyun-1c-debris", "lat": -32.87796357497961, "lon": 15.278688107104253, "alt_km": 869.2351754540759, "timestamp": "2025-12-26T03:50:12.381431+00:00", "meta": {"OBJECT_NAME": "FENGYUN 1C DEB", "OBJECT_ID": "1999-025DSH", "EPOCH": "2025-12-25T08:09:13.972320", "MEAN_MOTION": 14.13230256, "ECCENTRICITY": 0.0135692, "INCLINATION": 98.139, "RA_OF_ASC_NODE": 199.8398, "ARG_OF_PERICENTER": 116.0735, "MEAN_ANOMALY": 245.4478, "EPHEMERIS_TYPE": 0, "CLASSIFICATION_TYPE": "U", "NORAD_CAT_ID": 36160, "ELEMENT_SET_NO": 999, "REV_AT_EPOCH": 60230, "BSTAR": 0.00022345, "MEAN_MOTION_DOT": 4.2e-06, "MEAN_MOTION_DDOT": 0}, "tle": {"line1": "1 36160U 99025DSH 25359.33974505  .00000420  00000+0  22345-3 0  9995", "line2": "2 36160  98.1390 199.8398 0135692 116.0735 245.4478 14.13230256602306"}}, "geometry": {"type": "Point", "coordinates": [15.278688107104253, -32.87796357497961]}}]}